OSCAR 7 (AO-7)          
1 07530U 74089B   22029.16812595 -.00000032  00000+0  86233-4 0  9996
2 07530 101.8878   8.6918 0012092 310.0512 114.7943 12.53652605160256
PHASE 3B (AO-10)        
1 14129U 83058B   22028.39181625 -.00000010  00000+0  00000+0 0  9990
2 14129  26.3821 118.9097 5979425  44.4030 350.1863  2.05866919262521
UOSAT 2 (UO-11)         
1 14781U 84021B   22028.96945965  .00000354  00000+0  49164-4 0  9992
2 14781  97.6067  22.8739 0009805  64.7154 295.5075 14.83423700 40366
LUSAT (LO-19)           
1 20442U 90005G   22029.15625680  .00000038  00000+0  30484-4 0  9997
2 20442  98.7747 352.0432 0011068 213.7063 146.3417 14.33018597673219
EYESAT A (AO-27)        
1 22825U 93061C   22028.94043896  .00000027  00000+0  28530-4 0  9995
2 22825  98.9028  56.9149 0009501  97.7977 262.4283 14.30141591478210
ITAMSAT (IO-26)         
1 22826U 93061D   22029.06707130  .00000031  00000+0  29755-4 0  9993
2 22826  98.8971  56.9335 0010022  85.7645 274.4681 14.30483522478738
RADIO ROSTO (RS-15)     
1 23439U 94085A   22028.97601941 -.00000037  00000+0  15882-3 0  9995
2 23439  64.8180  11.2097 0166881 296.3170  62.0696 11.27571376115767
JAS-2 (FO-29)           
1 24278U 96046B   22028.68009017 -.00000037  00000+0  12991-5 0  9990
2 24278  98.5364  71.4748 0349282 285.9452  70.3471 13.53109741256700
TECHSAT 1B (GO-32)      
1 25397U 98043D   22028.85855723  .00000003  00000+0  20998-4 0  9991
2 25397  98.8007 339.0968 0001992 122.8044 237.3327 14.23729644223781
ISS (ZARYA)             
1 25544U 98067A   22029.50860834  .00017608  00000+0  31891-3 0  9995
2 25544  51.6442 303.3586 0007009  71.0273  88.0293 15.49703015323674
PCSAT (NO-44)           
1 26931U 01043C   22028.49695075  .00000026  00000+0  41777-4 0  9995
2 26931  67.0510  59.6328 0007084 280.0998  79.9304 14.30657526 61389
SAUDISAT 1C (SO-50)     
1 27607U 02058C   22029.15465905  .00000348  00000+0  69285-4 0  9995
2 27607  64.5560   8.0820 0067871 322.4844  37.1532 14.75888756 28026
CUTE-1 (CO-55)          
1 27844U 03031E   22028.79586626  .00000123  00000+0  74908-4 0  9992
2 27844  98.6805  38.5833 0010518 141.9053 218.2871 14.22373998964018
CUBESAT XI-IV (CO-57)   
1 27848U 03031J   22028.99738494  .00000097  00000+0  63741-4 0  9993
2 27848  98.6855  39.3254 0010204 154.3024 205.8662 14.21942042963897
MOZHAYETS 4 (RS-22)     
1 27939U 03042A   22029.07284132  .00000356  00000+0  72141-4 0  9993
2 27939  98.1681 170.0405 0011609 289.8535  70.1387 14.67115533980604
CUBESAT XI-V            
1 28895U 05043F   22028.90503726  .00000382  00000+0  81701-4 0  9993
2 28895  98.0849 162.6491 0016031 216.9832 143.0266 14.64067683866998
FALCONSAT-3             
1 30776U 07006E   22028.49370616  .00013005  00000+0  27135-3 0  9995
2 30776  35.4338  90.4926 0003081 182.1489 177.9227 15.44721687827878
CUTE-1.7+APD II (CO-65) 
1 32785U 08021C   22028.81414388  .00000884  00000+0  99473-4 0  9992
2 32785  97.6398   4.2983 0012410 343.5074  16.5738 14.89018989745776
DELFI-C3 (DO-64)        
1 32789U 08021G   22028.84519477  .00004879  00000+0  29897-3 0  9994
2 32789  97.3556  60.4338 0012882  87.7365 272.5340 15.10546271750835
SEEDS II (CO-66)        
1 32791U 08021J   22028.76602852  .00001372  00000+0  14118-3 0  9993
2 32791  97.5961   9.9112 0011681 299.7624  60.2432 14.91835542746443
YUBILEINY (RS-30)       
1 32953U 08025A   22029.06310138  .00000021  00000+0  80971-4 0  9995
2 32953  82.5018 270.6105 0018766 203.6252 156.3968 12.43107023621018
KKS-1 (KISEKI)          
1 33499U 09002H   22029.12470262  .00000310  00000+0  53059-4 0  9997
2 33499  98.2383 268.7044 0010020  46.2200 313.9836 14.75793096700125
SWISSCUBE               
1 35932U 09051B   22028.80689762  .00000303  00000+0  78860-4 0  9995
2 35932  98.5834 240.7172 0008536 112.9022 247.3077 14.56669191655760
BEESAT-1                
1 35933U 09051C   22028.55870982  .00000266  00000+0  70550-4 0  9990
2 35933  98.5781 242.1779 0006620 123.4616 236.7215 14.56710333655805
ITUPSAT1                
1 35935U 09051E   22029.04120830  .00000237  00000+0  65143-4 0  9997
2 35935  98.5883 242.7643 0008924 125.9709 234.2316 14.55834069655622
XIWANG-1 (HOPE-1)       
1 36122U 09072B   22029.18477832 -.00000007  00000+0  93735-4 0  9995
2 36122 100.1642   5.7759 0006984 305.1747  54.8712 13.16365483582593
JUGNU                   
1 37839U 11058B   22029.14330328  .00000345  00000+0  42095-4 0  9999
2 37839  19.9615 300.4220 0018959  61.2479  86.2462 14.12744952532529
SRMSAT                  
1 37841U 11058D   22029.13620068  .00000308  00000+0  24067-4 0  9992
2 37841  19.9737  17.0168 0011657 252.8030 183.7678 14.10722635531767
M-CUBED & EXP-1 PRIME   
1 37855U 11061F   22028.81712198  .00004315  00000+0  20556-3 0  9991
2 37855 101.7182  74.6080 0161842 119.7228 242.0202 15.09372473560157
STRAND-1                
1 39090U 13009E   22028.52319840  .00000081  00000+0  43398-4 0  9999
2 39090  98.4107 230.2320 0008599 335.0662  25.0108 14.35235043467328
SOMP                    
1 39134U 13015E   22028.81430434  .00006474  00000+0  26682-3 0  9998
2 39134  64.8625 158.6973 0029055 302.0354  57.7953 15.24572652485541
BEESAT-3                
1 39135U 13015F   22028.85560337  .00004708  00000+0  21869-3 0  9999
2 39135  64.8654 191.6673 0029199 313.1295  46.7391 15.20899706485298
BEESAT-2                
1 39136U 13015G   22028.89000097  .00004295  00000+0  20650-3 0  9994
2 39136  64.8741 198.9475 0010915 264.6375  95.3507 15.20137947485168
ZACUBE-1 (TSHEPISOSAT)  
1 39417U 13066B   22028.88042804  .00000623  00000+0  82982-4 0  9991
2 39417  97.6194   6.8814 0059260 141.0194 219.5315 14.81796060442458
GOMX-1                  
1 39430U 13066Q   22029.12425206  .00000451  00000+0  89253-4 0  9992
2 39430  97.8157 304.2614 0151169 123.7008 237.8719 14.59823100435969
CUBEBUG-2 (LO-74)       
1 39440U 13066AA  22029.14552582  .00000567  00000+0  84610-4 0  9993
2 39440  97.7081 352.7675 0078364 222.6655 136.8453 14.76516648440922
FUNCUBE-1 (AO-73)       
1 39444U 13066AE  22028.92556448  .00000820  00000+0  10481-3 0  9993
2 39444  97.6083   9.3170 0058442 130.1208 230.5148 14.82759280441432
UWE-3                   
1 39446U 13066AG  22028.86616722  .00000555  00000+0  78921-4 0  9999
2 39446  97.6671 359.1748 0069141 183.2049 176.8730 14.79054353440415
SPROUT                  
1 39770U 14029E   22029.10361437  .00002915  00000+0  31372-3 0  9997
2 39770  97.9291 145.5107 0008717 178.2990 181.8246 14.89256752416917
UNISAT-6                
1 40012U 14033C   22029.08483792  .00000624  00000+0  98848-4 0  9996
2 40012  97.6619 224.5026 0056560 249.9049 109.6068 14.74526390409449
DUCHIFAT-1              
1 40021U 14033M   22028.80804032  .00001543  00000+0  15838-3 0  9997
2 40021  97.9974 336.7351 0013505 136.2991 223.9298 14.91855156413870
QB50P1                  
1 40025U 14033R   22028.78734454  .00000912  00000+0  10087-3 0  9998
2 40025  97.9504 325.2803 0012854 151.0518 209.1414 14.89799675412969
NUDT-PHONESAT           
1 40900U 15049B   22029.09717172  .00011279  00000+0  39665-3 0  9992
2 40900  97.4115  47.0016 0012801  66.3687   6.3177 15.29440954353275
ZDPS 2A                 
1 40901U 15049C   22029.10474581  .00005169  00000+0  23547-3 0  9992
2 40901  97.4632  38.9030 0014308 110.5665 323.0328 15.21027245352257
ZDPS 2B                 
1 40902U 15049D   22029.07618257  .00005425  00000+0  24640-3 0  9999
2 40902  97.4698  36.3803 0014275 107.9500 323.3770 15.21103058352229
XW-2A                   
1 40903U 15049E   22029.12819941  .00010108  00000+0  19410-3 0  9992
2 40903  97.2060  87.8582 0009611 270.7470 173.2449 15.48106837357675
KAITUO 1A               
1 40904U 15049F   22029.15098563  .00001983  00000+0  10414-3 0  9991
2 40904  97.4937  33.1388 0015334 129.5971 302.7585 15.16791143351742
2015-049G               
1 40905U 15049G   22029.10444580  .00001688  00000+0  92386-4 0  9992
2 40905  97.5105  30.2231 0016585 131.8495 296.6184 15.15520048351505
XW-2C                   
1 40906U 15049H   22029.13330515  .00002713  00000+0  13817-3 0  9999
2 40906  97.4924  33.8410 0015794 120.1079 302.8638 15.17543932351785
XW-2D                   
1 40907U 15049J   22029.13955486  .00003008  00000+0  15103-3 0  9998
2 40907  97.4915  33.7346 0015228 116.0361 308.6381 15.17973096351825
LILACSAT-2              
1 40908U 15049K   22029.15317823  .00001237  00000+0  69779-4 0  9999
2 40908  97.5135  31.2438 0016688 134.3303 288.1693 15.14907476351392
XW-2E                   
1 40909U 15049L   22029.09092323  .00004601  00000+0  21082-3 0  9990
2 40909  97.4681  37.9772 0014582 101.0660 299.9080 15.20883637352211
XW-2F                   
1 40910U 15049M   22029.10892067  .00004613  00000+0  21440-3 0  9998
2 40910  97.4756  37.1008 0015631 101.4672 332.2034 15.20375545351991
XW-2B                   
1 40911U 15049N   22029.15530861  .00002870  00000+0  14464-3 0  9996
2 40911  97.4912  34.3908 0015102 117.3466 307.0978 15.17879249351717
KAITUO 1B               
1 40912U 15049P   22029.11367992  .00005404  00000+0  23144-3 0  9997
2 40912  97.4424  41.4780 0015626  73.8543 359.5662 15.23095784352529
TIANWANG 1A (TW-1A)     
1 40928U 15051D   22029.11415608  .00016328  00000+0  28906-3 0  9993
2 40928  97.0596  53.9122 0008790 168.8234 264.1432 15.50320970356591
LAPAN-A2                
1 40931U 15052B   22026.69290886  .00000765  00000+0  17205-4 0  9996
2 40931   5.9985 100.2307 0013903 324.4750  35.4373 14.76723554342355
E-ST@R-II               
1 41459U 16025D   22029.02160241  .00004709  00000+0  22185-3 0  9998
2 41459  98.1675 184.3881 0154715  22.0566 338.7215 15.10027729316438
AAUSAT 4                
1 41460U 16025E   22029.19583513  .00006832  00000+0  29861-3 0  9996
2 41460  98.1630 189.7071 0139622   1.1983 358.9550 15.14019478316838
